SENTINEL-6              
1 46984U 20086A   24119.57535542 -.00000048  00000+0  55367-4 0  9992
2 46984  66.0415 314.3150 0007749 270.7437  89.2690 12.80930524160475
